{
  "type": "FeatureCollection",
  "features": [
    {
      "type": "Feature",
      "properties": {
        "norad_id": 66603,
        "name": "STARLINK-36048",
        "group": "last-30-days",
        "lat": -34.36754704898035,
        "lon": 108.3135680569719,
        "alt_km": 333.44364547625173,
        "timestamp": "2025-12-04T13:51:59.228316+00:00",
        "meta_object_name": "STARLINK-36048",
        "meta_object_id": "2025-270R",
        "meta_epoch": "2025-12-03T21:40:34.816800",
        "meta_mean_motion": 15.77266061,
        "meta_eccentricity": 0.00104068,
        "meta_inclination": 42.9981,
        "meta_ra_of_asc_node": 245.2035,
        "meta_arg_of_pericenter": 263.8687,
        "meta_mean_anomaly": 96.0997,
        "meta_ephemeris_type": 0,
        "meta_classification_type": "U",
        "meta_norad_cat_id": 66603,
        "meta_element_set_no": 999,
        "meta_rev_at_epoch": 286,
        "meta_bstar": 0.0029394154,
        "meta_mean_motion_dot": 0.00531136,
        "meta_mean_motion_ddot": 0,
        "tle_line1": "1 66603U 25270R   25337.90318075  .00531136  00000+0  29394-2 0  9997",
        "tle_line2": "2 66603  42.9981 245.2035 0010406 263.8687  96.0997 15.77266061  2865"
      },
      "geometry": {
        "type": "Point",
        "coordinates": [
          108.3135680569719,
          -34.36754704898035
        ]
      }
    },
    {
      "type": "Feature",
      "properties": {
        "norad_id": 66604,
        "name": "STARLINK-35977",
        "group": "last-30-days",
        "lat": -35.72082541067459,
        "lon": 111.59473687492559,
        "alt_km": 340.745143989353,
        "timestamp": "2025-12-04T13:51:59.228326+00:00",
        "meta_object_name": "STARLINK-35977",
        "meta_object_id": "2025-270S",
        "meta_epoch": "2025-12-03T11:01:46.597440",
        "meta_mean_motion": 15.77554299,
        "meta_eccentricity": 0.00039426,
        "meta_inclination": 42.9996,
        "meta_ra_of_asc_node": 247.8966,
        "meta_arg_of_pericenter": 347.7852,
        "meta_mean_anomaly": 12.2922,
        "meta_ephemeris_type": 0,
        "meta_classification_type": "U",
        "meta_norad_cat_id": 66604,
        "meta_element_set_no": 999,
        "meta_rev_at_epoch": 289,
        "meta_bstar": 0.00071417663,
        "meta_mean_motion_dot": 0.00123952,
        "meta_mean_motion_ddot": 0,
        "tle_line1": "1 66604U 25270S   25337.45956710  .00123952  00000+0  71418-3 0  9990",
        "tle_line2": "2 66604  42.9996 247.8966 0003942 347.7852  12.2922 15.77554299  2890"
      },
      "geometry": {
        "type": "Point",
        "coordinates": [
          111.59473687492559,
          -35.72082541067459
        ]
      }
    },
    {
      "type": "Feature",
      "properties": {
        "norad_id": 66605,
        "name": "STARLINK-36052",
        "group": "last-30-days",
        "lat": -32.64777656355377,
        "lon": 104.54690439172413,
        "alt_km": 344.47488704633906,
        "timestamp": "2025-12-04T13:51:59.228336+00:00",
        "meta_object_name": "STARLINK-36052",
        "meta_object_id": "2025-270T",
        "meta_epoch": "2025-12-04T05:16:38.719776",
        "meta_mean_motion": 15.75289025,
        "meta_eccentricity": 0.000214,
        "meta_inclination": 42.9979,
        "meta_ra_of_asc_node": 243.2778,
        "meta_arg_of_pericenter": 231.812,
        "meta_mean_anomaly": 128.2557,
        "meta_ephemeris_type": 0,
        "meta_classification_type": "U",
        "meta_norad_cat_id": 66605,
        "meta_element_set_no": 999,
        "meta_rev_at_epoch": 301,
        "meta_bstar": 0.0024289283,
        "meta_mean_motion_dot": 0.00394919,
        "meta_mean_motion_ddot": 0,
        "tle_line1": "1 66605U 25270T   25338.21989259  .00394919  00000+0  24289-2 0  9996",
        "tle_line2": "2 66605  42.9979 243.2778 0002140 231.8120 128.2557 15.75289025  3010"
      },
      "geometry": {
        "type": "Point",
        "coordinates": [
          104.54690439172413,
          -32.64777656355377
        ]
      }
    },
    {
      "type": "Feature",
      "properties": {
        "norad_id": 66606,
        "name": "STARLINK-36063",
        "group": "last-30-days",
        "lat": -26.762961219810304,
        "lon": 93.90203197538152,
        "alt_km": 356.9442835996615,
        "timestamp": "2025-12-04T13:51:59.228346+00:00",
        "meta_object_name": "STARLINK-36063",
        "meta_object_id": "2025-270U",
        "meta_epoch": "2025-12-04T02:13:26.401152",
        "meta_mean_motion": 15.70932101,
        "meta_eccentricity": 0.0031868,
        "meta_inclination": 42.9978,
        "meta_ra_of_asc_node": 244.043,
        "meta_arg_of_pericenter": 182.8429,
        "meta_mean_anomaly": 177.2262,
        "meta_ephemeris_type": 0,
        "meta_classification_type": "U",
        "meta_norad_cat_id": 66606,
        "meta_element_set_no": 999,
        "meta_rev_at_epoch": 299,
        "meta_bstar": -0.056770882,
        "meta_mean_motion_dot": -0.06178149,
        "meta_mean_motion_ddot": 0,
        "tle_line1": "1 66606U 25270U   25338.09266668 -.06178149  00000+0 -56771-1 0  9998",
        "tle_line2": "2 66606  42.9978 244.0430 0031868 182.8429 177.2262 15.70932101  2998"
      },
      "geometry": {
        "type": "Point",
        "coordinates": [
          93.90203197538152,
          -26.762961219810304
        ]
      }
    },
    {
      "type": "Feature",
      "properties": {
        "norad_id": 66607,
        "name": "STARLINK-35993",
        "group": "last-30-days",
        "lat": -33.311631613753136,
        "lon": 105.95327235774838,
        "alt_km": 347.3155947418736,
        "timestamp": "2025-12-04T13:51:59.228359+00:00",
        "meta_object_name": "STARLINK-35993",
        "meta_object_id": "2025-270V",
        "meta_epoch": "2025-12-04T00:42:13.697280",
        "meta_mean_motion": 15.75244198,
        "meta_eccentricity": 0.00015476,
        "meta_inclination": 42.9984,
        "meta_ra_of_asc_node": 244.4293,
        "meta_arg_of_pericenter": 280.1184,
        "meta_mean_anomaly": 79.9511,
        "meta_ephemeris_type": 0,
        "meta_classification_type": "U",
        "meta_norad_cat_id": 66607,
        "meta_element_set_no": 999,
        "meta_rev_at_epoch": 288,
        "meta_bstar": -0.0024272821,
        "meta_mean_motion_dot": -0.00361066,
        "meta_mean_motion_ddot": 0,
        "tle_line1": "1 66607U 25270V   25338.02932520 -.00361066  00000+0 -24273-2 0  9998",
        "tle_line2": "2 66607  42.9984 244.4293 0001547 280.1184  79.9511 15.75244198  2888"
      },
      "geometry": {
        "type": "Point",
        "coordinates": [
          105.95327235774838,
          -33.311631613753136
        ]
      }
    },
    {
      "type": "Feature",
      "properties": {
        "norad_id": 66608,
        "name": "STARLINK-36036",
        "group": "last-30-days",
        "lat": -35.2249290860594,
        "lon": 110.35856936385345,
        "alt_km": 346.1952351735363,
        "timestamp": "2025-12-04T13:51:59.228369+00:00",
        "meta_object_name": "STARLINK-36036",
        "meta_object_id": "2025-270W",
        "meta_epoch": "2025-12-04T05:15:11.882592",
        "meta_mean_motion": 15.75206645,
        "meta_eccentricity": 0.00013364,
        "meta_inclination": 42.9982,
        "meta_ra_of_asc_node": 243.2689,
        "meta_arg_of_pericenter": 286.6159,
        "meta_mean_anomaly": 73.4563,
        "meta_ephemeris_type": 0,
        "meta_classification_type": "U",
        "meta_norad_cat_id": 66608,
        "meta_element_set_no": 999,
        "meta_rev_at_epoch": 285,
        "meta_bstar": 0.00089241727,
        "meta_mean_motion_dot": 0.00139923,
        "meta_mean_motion_ddot": 0,
        "tle_line1": "1 66608U 25270W   25338.21888753  .00139923  00000+0  89242-3 0  9999",
        "tle_line2": "2 66608  42.9982 243.2689 0001336 286.6159  73.4563 15.75206645  2850"
      },
      "geometry": {
        "type": "Point",
        "coordinates": [
          110.35856936385345,
          -35.2249290860594
        ]
      }
    },
    {
      "type": "Feature",
      "properties": {
        "norad_id": 66609,
        "name": "STARLINK-36034",
        "group": "last-30-days",
        "lat": -36.02080132562182,
        "lon": 112.37402796720009,
        "alt_km": 345.96655795970946,
        "timestamp": "2025-12-04T13:51:59.228379+00:00",
        "meta_object_name": "STARLINK-36034",
        "meta_object_id": "2025-270X",
        "meta_epoch": "2025-12-04T03:43:23.820384",
        "meta_mean_motion": 15.75158177,
        "meta_eccentricity": 0.00020311,
        "meta_inclination": 42.9993,
        "meta_ra_of_asc_node": 243.6507,
        "meta_arg_of_pericenter": 265.992,
        "meta_mean_anomaly": 94.0717,
        "meta_ephemeris_type": 0,
        "meta_classification_type": "U",
        "meta_norad_cat_id": 66609,
        "meta_element_set_no": 999,
        "meta_rev_at_epoch": 284,
        "meta_bstar": 0.00017231118,
        "meta_mean_motion_dot": 0.00026211,
        "meta_mean_motion_ddot": 0,
        "tle_line1": "1 66609U 25270X   25338.15513681  .00026211  00000+0  17231-3 0  9992",
        "tle_line2": "2 66609  42.9993 243.6507 0002031 265.9920  94.0717 15.75158177  2840"
      },
      "geometry": {
        "type": "Point",
        "coordinates": [
          112.37402796720009,
          -36.02080132562182
        ]
      }
    }
  ]
}